NORAD_CAT_ID,OBJECT_NAME,OBJECT_TYPE,EPOCH,MEAN_MOTION,ECCENTRICITY,INCLINATION,RA_OF_ASC_NODE,ARG_OF_PERICENTER,MEAN_ANOMALY,BSTAR,MEAN_MOTION_DOT,MEAN_MOTION_DDOT,TLE_LINE0,TLE_LINE1,TLE_LINE2,SEMIMAJOR_AXIS,PERIOD,APOGEE,PERIGEE,DECAYED
52585.0,STARLINK-3906,PAYLOAD,2022-11-14 17:28:54,15.08848566,0.0002015,53.2161,155.3426,47.0601,313.0559,0.00010629,1.404e-05,0.0,0 STARLINK-3906,1 52585U 22051BB  22318.72840382  .00001404  00000-0  10629-3 0  9995,2 52585  53.2161 155.3426 0002015  47.0601 313.0559 15.08848566 28778,6917.854,95.437,541.113,538.325,0.0
52585.0,STARLINK-3906,PAYLOAD,2022-11-14 22:15:03,15.08836213,0.0001793,53.2166,154.4503,42.4587,317.6544,-8.821799999999999e-05,-1.692e-05,0.0,0 STARLINK-3906,1 52585U 22051BB  22318.92712931 -.00001692  00000-0 -88218-4 0  9996,2 52585  53.2166 154.4503 0001793  42.4587 317.6544 15.08836213 28874,6917.892,95.438,540.997,538.5169999999998,0.0
52585.0,STARLINK-3906,PAYLOAD,2022-11-15 06:12:00,15.08829272,0.0002028,53.2168,152.963,42.0473,318.0675,-0.00016326,-2.885e-05,0.0,0 STARLINK-3906,1 52585U 22051BB  22319.25833546 -.00002885  00000-0 -16326-3 0  9994,2 52585  53.2168 152.9630 0002028  42.0473 318.0675 15.08829272 28857,6917.913000000001,95.438,541.181,538.375,0.0
52585.0,STARLINK-3906,PAYLOAD,2022-11-15 20:30:28,15.08827242,0.0002098,53.2164,150.2869,41.1696,318.9454,-1.1805e-05,-4.76e-06,0.0,0 STARLINK-3906,1 52585U 22051BB  22319.85450230 -.00000476  00000-0 -11805-4 0  9997,2 52585  53.2164 150.2869 0002098  41.1696 318.9454 15.08827242 28941,6917.919,95.438,541.236,538.3330000000002,0.0
52585.0,STARLINK-3906,PAYLOAD,2022-11-16 12:24:20,15.08830452,0.0002073,53.2167,147.3138,41.2837,318.8312,-6.2375e-06,-3.87e-06,0.0,0 STARLINK-3906,1 52585U 22051BB  22320.51690626 -.00000387  00000-0 -62375-5 0  9997,2 52585  53.2167 147.3138 0002073  41.2837 318.8312 15.08830452 29110,6917.91,95.438,541.2090000000002,538.34,0.0
52585.0,STARLINK-3906,PAYLOAD,2022-11-16 18:45:53,15.08833495,0.0002077,53.2174,146.1241,41.4144,318.7005,-3.0544e-05,-7.74e-06,0.0,0 STARLINK-3906,1 52585U 22051BB  22320.78186833 -.00000774  00000-0 -30544-4 0  9998,2 52585  53.2174 146.1241 0002077  41.4144 318.7005 15.08833495 29081,6917.9,95.438,541.202,538.328,0.0
52585.0,STARLINK-3906,PAYLOAD,2022-11-17 12:15:08,15.08830229,0.0002152,53.2172,142.8531,43.3851,316.7311,0.00013266,1.823e-05,0.0,0 STARLINK-3906,1 52585U 22051BB  22321.51051270  .00001823  00000-0  13266-3 0  9991,2 52585  53.2172 142.8531 0002152  43.3851 316.7311 15.08830229 29196,6917.91,95.438,541.264,538.2869999999998,0.0
52585.0,STARLINK-3906,PAYLOAD,2022-11-17 15:25:54,15.08831255,0.0002154,53.2171,142.2583,43.8105,316.3057,0.00013987,1.938e-05,0.0,0 STARLINK-3906,1 52585U 22051BB  22321.64299316  .00001938  00000-0  13987-3 0  9997,2 52585  53.2171 142.2583 0002154  43.8105 316.3057 15.08831255 29288,6917.906999999997,95.438,541.262,538.2819999999998,0.0
52585.0,STARLINK-3906,PAYLOAD,2022-11-18 12:05:55,15.08839265,0.0002193,53.2171,138.3925,45.2109,314.9062,0.00013769,1.904e-05,0.0,0 STARLINK-3906,1 52585U 22051BB  22322.50411220  .00001904  00000-0  13769-3 0  9994,2 52585  53.2171 138.3925 0002193  45.2109 314.9062 15.08839265 29343,6917.8830000000025,95.438,541.265,538.231,0.0
52585.0,STARLINK-3906,PAYLOAD,2022-11-18 18:27:27,15.08842491,0.0002184,53.2171,137.2028,45.8682,314.2489,0.00015793,2.226e-05,0.0,0 STARLINK-3906,1 52585U 22051BB  22322.76907026  .00002226  00000-0  15793-3 0  9993,2 52585  53.2171 137.2028 0002184  45.8682 314.2489 15.08842491 29450,6917.873000000001,95.437,541.249,538.227,0.0
52585.0,STARLINK-3906,PAYLOAD,2022-11-19 11:56:41,15.08849081,0.0002224,53.2172,133.9319,46.5622,313.5555,0.00014541,2.027e-05,0.0,0 STARLINK-3906,1 52585U 22051BB  22323.49770485  .00002027  00000-0  14541-3 0  9990,2 52585  53.2172 133.9319 0002224  46.5622 313.5555 15.08849081 29496,6917.853,95.437,541.256,538.179,0.0
52585.0,STARLINK-3906,PAYLOAD,2022-11-20 11:47:28,15.0885261,0.0002268,53.2175,129.4707,46.356,313.762,8.9102e-05,1.131e-05,0.0,0 STARLINK-3906,1 52585U 22051BB  22324.49129900  .00001131  00000-0  89102-4 0  9992,2 52585  53.2175 129.4707 0002268  46.3560 313.7620 15.08852610 29719,6917.842,95.437,541.276,538.138,0.0
52585.0,STARLINK-3906,PAYLOAD,2022-11-20 18:09:01,15.08845729,0.000227,53.2178,128.2815,45.7324,314.3854,1.8114e-05,0.0,0.0,0 STARLINK-3906,1 52585U 22051BB  22324.75626297  .00000000  00000-0  18114-4 0  9991,2 52585  53.2178 128.2815 0002270  45.7324 314.3854 15.08845729 29688,6917.863,95.437,541.298,538.158,0.0
52585.0,STARLINK-3906,PAYLOAD,2022-11-21 03:41:19,15.08847252,0.0002306,53.2183,126.4977,47.5716,312.5471,2.383400000000001e-05,9.1e-07,0.0,0 STARLINK-3906,1 52585U 22051BB  22325.15370020  .00000091  00000-0  23834-4 0  9991,2 52585  53.2183 126.4977 0002306  47.5716 312.5471 15.08847252 29811,6917.858,95.437,541.318,538.128,0.0
52585.0,STARLINK-3906,PAYLOAD,2022-11-21 21:10:34,15.08840031,0.0002161,53.218,123.227,45.9939,314.1231,-6.748899999999999e-05,-1.362e-05,0.0,0 STARLINK-3906,1 52585U 22051BB  22325.88234255 -.00001362  00000-0 -67489-4 0  9998,2 52585  53.2180 123.2270 0002161  45.9939 314.1231 15.08840031 29851,6917.88,95.438,541.24,538.25,0.0
52585.0,STARLINK-3906,PAYLOAD,2022-11-22 03:32:07,15.08833211,0.0002186,53.218,122.038,47.7908,312.3269,-4.4641e-06,-3.59e-06,0.0,0 STARLINK-3906,1 52585U 22051BB  22326.14730386 -.00000359  00000-0 -44641-5 0  9995,2 52585  53.2180 122.0380 0002186  47.7908 312.3269 15.08833211 29968,6917.901,95.438,541.278,538.254,0.0
52585.0,STARLINK-3906,PAYLOAD,2022-11-22 17:50:35,15.08838058,0.0002206,53.2182,119.3612,46.8923,313.2254,3.058e-05,1.98e-06,0.0,0 STARLINK-3906,1 52585U 22051BB  22326.74346080  .00000198  00000-0  30580-4 0  9990,2 52585  53.2182 119.3612 0002206  46.8923 313.2254 15.08838058 29987,6917.886,95.438,541.2769999999998,538.225,0.0
52585.0,STARLINK-3906,PAYLOAD,2022-11-23 03:22:53,15.08841106,0.0002257,53.2184,117.5773,47.68600000000001,312.4323,3.8642e-05,3.27e-06,0.0,0 STARLINK-3906,1 52585U 22051BB  22327.14089887  .00000327  00000-0  38642-4 0  9995,2 52585  53.2184 117.5773 0002257  47.6860 312.4323 15.08841106 30115,6917.877,95.437,541.303,538.181,0.0
52585.0,STARLINK-3906,PAYLOAD,2022-11-23 09:44:26,15.08843982,0.0002161,53.2184,116.3875,45.6906,314.4263,1.9765e-05,2.6e-07,0.0,0 STARLINK-3906,1 52585U 22051BB  22327.40585703  .00000026  00000-0  19765-4 0  9993,2 52585  53.2184 116.3875 0002161  45.6906 314.4263 15.08843982 30083,6917.868,95.437,541.2280000000002,538.238,0.0
52585.0,STARLINK-3906,PAYLOAD,2022-11-23 17:41:21,15.08843567,0.0002243,53.2185,114.9008,47.5153,312.6029,0.00011338,1.517e-05,0.0,0 STARLINK-3906,1 52585U 22051BB  22327.73705395  .00001517  00000-0  11338-3 0  9993,2 52585  53.2185 114.9008 0002243  47.5153 312.6029 15.08843567 30137,6917.869000000002,95.437,541.286,538.183,0.0
52585.0,STARLINK-3906,PAYLOAD,2022-11-24 03:13:39,15.08845758,0.000223,53.2185,113.1166,47.4228,312.6952,0.00016621,2.358e-05,0.0,0 STARLINK-3906,1 52585U 22051BB  22328.13449016  .00002358  00000-0  16621-3 0  9997,2 52585  53.2185 113.1166 0002230  47.4228 312.6952 15.08845758 30264,6917.863,95.437,541.27,538.185,0.0
52585.0,STARLINK-3906,PAYLOAD,2022-11-24 09:35:12,15.08843136,0.0002196,53.2169,111.9286,47.637,312.4808,0.00014041,1.947e-05,0.0,0 STARLINK-3906,1 52585U 22051BB  22328.39945240  .00001947  00000-0  14041-3 0  9992,2 52585  53.2169 111.9286 0002196  47.6370 312.4808 15.08843136 30239,6917.871,95.437,541.255,538.217,0.0
52585.0,STARLINK-3906,PAYLOAD,2022-11-24 12:45:59,15.08837284,0.0002221,53.2182,111.3324,48.5958,311.5224,5.8453e-05,6.42e-06,0.0,0 STARLINK-3906,1 52585U 22051BB  22328.53193872  .00000642  00000-0  58453-4 0  9991,2 52585  53.2182 111.3324 0002221  48.5958 311.5224 15.08837284 30321,6917.889,95.438,541.29,538.217,0.0
52585.0,STARLINK-3906,PAYLOAD,2022-11-24 19:07:31,15.08840686,0.0002199,53.2182,110.1431,48.0881,312.0298,4.243e-05,3.87e-06,0.0,0 STARLINK-3906,1 52585U 22051BB  22328.79689696  .00000387  00000-0  42430-4 0  9997,2 52585  53.2182 110.1431 0002199  48.0881 312.0298 15.08840686 30294,6917.878000000002,95.438,541.265,538.222,0.0
52585.0,STARLINK-3906,PAYLOAD,2022-11-25 04:39:50,15.0884422,0.0002198,53.2181,108.359,47.2724,312.8453,5.7036e-05,6.2e-06,0.0,0 STARLINK-3906,1 52585U 22051BB  22329.19433277  .00000620  00000-0  57036-4 0  9992,2 52585  53.2181 108.3590 0002198  47.2724 312.8453 15.08844220 30428,6917.8669999999975,95.437,541.253,538.212,0.0
52585.0,STARLINK-3906,PAYLOAD,2022-11-25 12:36:45,15.088497699999998,0.0002207,53.218,106.8721,47.7602,312.3577,8.649299999999999e-05,1.089e-05,0.0,0 STARLINK-3906,1 52585U 22051BB  22329.52552781  .00001089  00000-0  86493-4 0  9990,2 52585  53.2180 106.8721 0002207  47.7602 312.3577 15.08849770 30402,6917.851,95.437,541.242,538.189,0.0
52585.0,STARLINK-3906,PAYLOAD,2022-11-25 15:47:32,15.08848327,0.00023,53.2183,106.278,46.7702,313.3482,5.6952e-05,6.18e-06,0.0,0 STARLINK-3906,1 52585U 22051BB  22329.65800928  .00000618  00000-0  56952-4 0  9997,2 52585  53.2183 106.2780 0002300  46.7702 313.3482 15.08848327 30423,6917.855,95.437,541.311,538.129,0.0
52585.0,STARLINK-3906,PAYLOAD,2022-11-26 10:52:09,15.08842245,0.0002174,53.2184,102.7095,47.1131,313.0043,0.00010798,1.431e-05,0.0,0 STARLINK-3906,1 52585U 22051BB  22330.45288922  .00001431  00000-0  10798-3 0  9992,2 52585  53.2184 102.7095 0002174  47.1131 313.0043 15.08842245 30618,6917.874,95.437,541.242,538.235,0.0
52585.0,STARLINK-3906,PAYLOAD,2022-11-26 15:38:18,15.08845064,0.0002155,53.2185,101.8175,46.5299,313.5872,0.00015335,2.154e-05,0.0,0 STARLINK-3906,1 52585U 22051BB  22330.65160604  .00002154  00000-0  15335-3 0  9995,2 52585  53.2185 101.8175 0002155  46.5299 313.5872 15.08845064 30577,6917.865,95.437,541.221,538.239,0.0
